OBJECT_NAME,OBJECT_ID,EPOCH,MEAN_MOTION,ECCENTRICITY,INCLINATION,RA_OF_ASC_NODE,ARG_OF_PERICENTER,MEAN_ANOMALY,EPHEMERIS_TYPE,CLASSIFICATION_TYPE,NORAD_CAT_ID,ELEMENT_SET_NO,REV_AT_EPOCH,BSTAR,MEAN_MOTION_DOT,MEAN_MOTION_DDOT
STARLINK-32417,2024-193N,2026-07-20T03:10:09.193440,15.31698817,.00011192,53.1596,195.1541,86.4433,273.6696,0,U,61673,999,9681,.11976292E-3,.3353E-4,0
STARLINK-32326,2024-193P,2026-07-20T03:03:24.687648,15.31704280,.00011215,53.1586,195.1230,77.3232,282.7894,0,U,61674,999,9681,.32272142E-4,.637E-5,0
STARLINK-32294,2024-193Q,2026-07-20T05:51:10.154592,15.31700582,.00012775,53.1585,194.4287,83.7178,276.3969,0,U,61675,999,9683,.23688847E-4,.37E-5,0
STARLINK-32309,2024-193R,2026-07-19T07:39:03.208896,15.34387627,.00012602,53.1581,197.1922,87.9292,272.1855,0,U,61676,999,9671,.8507963E-5,-.89E-6,0
STARLINK-32323,2024-193S,2026-07-20T03:09:55.186272,15.34395395,.00011093,53.1582,193.0239,74.3755,285.7370,0,U,61677,999,9684,.26722674E-4,.527E-5,0
STARLINK-32363,2024-193T,2026-07-20T06:08:25.174752,15.34393932,.00011647,53.1582,192.3773,82.7140,277.3994,0,U,61678,999,9686,.16869903E-4,.194E-5,0
STARLINK-32395,2024-193U,2026-07-19T09:01:26.039712,15.30187791,.00012836,53.1588,199.6706,83.9148,276.1999,0,U,61679,999,9668,.234948E-6,-.352E-5,0
STARLINK-32412,2024-193V,2026-07-20T03:24:32.135040,15.31708026,.00011734,53.1594,195.2127,86.8646,273.2489,0,U,61680,999,9681,.63540809E-4,.1608E-4,0
STARLINK-32426,2024-193W,2026-07-19T16:47:08.499552,15.30191494,.00011499,53.1581,198.1338,77.0208,283.0921,0,U,61681,999,9673,.34365113E-4,.659E-5,0
STARLINK-32429,2024-193X,2026-07-20T06:45:53.809920,15.31706851,.00011764,53.1595,194.6567,87.5766,272.5370,0,U,61682,999,9683,.36219341E-4,.759E-5,0
STARLINK-11335 [DTC],2024-195A,2026-07-19T23:04:33.273408,15.69708991,.00011465,53.1601,94.5595,96.6055,263.5093,0,U,61687,999,9980,.1097669E-5,-.456E-5,0
STARLINK-11344 [DTC],2024-195B,2026-07-20T02:00:51.423264,15.69710289,.00011063,53.1600,93.8996,91.9763,268.1382,0,U,61688,999,9982,.3308482E-5,-.188E-5,0
STARLINK-11312 [DTC],2024-195C,2026-07-20T00:22:06.670272,15.69708848,.00010901,53.1601,94.1801,104.8473,255.2666,0,U,61689,999,9981,.2951133E-5,-.231E-5,0
STARLINK-11340 [DTC],2024-195D,2026-07-20T01:46:43.544640,15.69712961,.00010483,53.1592,93.8347,89.3906,270.7232,0,U,61690,999,9982,.11545124E-4,.81E-5,0
STARLINK-11339 [DTC],2024-195E,2026-07-20T00:00:55.214784,15.69706202,.0000944,53.1592,94.0822,91.5291,268.5835,0,U,61691,999,9981,.5164811E-5,.37E-6,0
STARLINK-11315 [DTC],2024-195F,2026-07-19T22:36:17.953344,15.69705847,.00009352,53.1592,94.4290,97.4020,262.7104,0,U,61692,999,9980,.6701879E-5,.224E-5,0
STARLINK-11366 [DTC],2024-195G,2026-07-19T23:53:51.176544,15.69710488,.00010213,53.1598,94.0494,91.7731,268.3404,0,U,61693,999,9981,.4584059E-5,-.33E-6,0
STARLINK-11348 [DTC],2024-195H,2026-07-20T02:50:09.451680,15.69710234,.00009268,53.1588,93.3887,83.2607,276.8516,0,U,61694,999,9983,.1259403E-5,-.436E-5,0
STARLINK-11327 [DTC],2024-195J,2026-07-19T23:39:43.591680,15.69707885,.00009036,53.1591,93.9806,101.2131,258.8989,0,U,61695,999,9981,.579791E-6,-.518E-5,0
STARLINK-11341 [DTC],2024-195K,2026-07-19T23:32:40.229952,15.69708000,.00011913,53.1599,93.9521,49.6275,310.4847,0,U,61696,999,9981,-.20995512E-4,-.3131E-4,0
STARLINK-11346 [DTC],2024-195L,2026-07-19T23:25:35.960160,15.69708051,.00008879,53.1590,93.9215,100.2467,259.8652,0,U,61697,999,9981,.2267334E-5,-.314E-5,0
STARLINK-11296 [DTC],2024-195N,2026-07-19T23:11:28.858272,15.69696377,.00008312,53.1588,93.8535,58.8557,301.2543,0,U,61699,999,9981,-.857604E-5,-.1626E-4,0
STARLINK-32349,2024-195P,2026-07-19T13:56:42.339840,15.30194933,.000086,53.1605,262.8062,80.7273,279.3825,0,U,61700,999,9737,.21188E-4,.269E-5,0
STARLINK-32461,2024-195Q,2026-07-20T04:26:19.435488,15.34411903,.00015035,53.1590,257.3439,75.5051,284.6118,0,U,61701,999,9750,.9927498E-4,.298E-4,0
STARLINK-32299,2024-195R,2026-07-19T11:02:28.091040,15.34391327,.0001099,53.1575,260.6418,90.2964,269.8164,0,U,61702,999,9746,.95936844E-4,.2866E-4,0
STARLINK-32387,2024-195T,2026-07-19T10:26:06.529056,15.34390911,.00011704,53.1573,260.4809,85.6419,274.4718,0,U,61704,999,9739,.85800562E-4,.2523E-4,0
STARLINK-32515,2024-195U,2026-07-20T04:32:03.487200,15.30195477,.00020843,53.1570,260.1957,104.7717,255.3515,0,U,61705,999,9746,.12073357E-3,.3217E-4,0
STARLINK-32533,2024-195V,2026-07-20T03:40:53.529312,15.34383964,.0001106,53.1592,257.1443,102.1992,257.9135,0,U,61706,999,9750,.25340764E-4,.48E-5,0
STARLINK-32376,2024-196A,2026-07-20T00:26:36.959712,15.34388770,.00011801,53.1594,205.4927,82.5130,277.6007,0,U,61707,999,9744,.21356496E-4,.345E-5,0
STARLINK-32402,2024-196B,2026-07-20T06:44:49.644096,15.34390963,.00011428,53.1595,204.2897,79.9404,280.1728,0,U,61708,999,9747,.23446927E-4,.416E-5,0
STARLINK-32314,2024-196C,2026-07-19T06:53:47.288832,15.34384032,.00012376,53.1602,209.4551,85.0797,275.0347,0,U,61709,999,9731,.2003185E-5,-.309E-5,0
STARLINK-32404,2024-196D,2026-07-20T07:30:16.654464,15.34391412,.00009498,53.1583,204.4813,79.2070,280.9040,0,U,61710,999,9747,.39877725E-4,.971E-5,0
STARLINK-32312,2024-196E,2026-07-20T06:35:44.822112,15.34378734,.00012262,53.1617,204.2451,73.3543,286.7595,0,U,61711,999,9747,-.37379544E-4,-.1638E-4,0
STARLINK-32343,2024-196F,2026-07-19T17:53:22.918560,15.34385108,.00011328,53.1593,207.3368,89.3633,270.7500,0,U,61712,999,9738,.10246163E-4,-.3E-6,0
STARLINK-32467,2024-196G,2026-07-20T06:53:54.996576,15.34399336,.00011073,53.1598,204.3278,83.0712,277.0417,0,U,61713,999,9747,.40582399E-4,.995E-5,0
STARLINK-32440,2024-196H,2026-07-20T06:38:46.134240,15.34391004,.00012801,53.1598,204.2567,85.5557,274.5592,0,U,61714,999,9747,.7117833E-5,-.136E-5,0
STARLINK-32459,2024-196J,2026-07-20T07:27:13.516704,15.34406278,.00012073,53.1584,204.4629,75.2003,284.9133,0,U,61715,999,9747,.91103455E-4,.2704E-4,0
STARLINK-32465,2024-196K,2026-07-19T17:07:57.402912,15.34328415,.00007683,53.1590,207.1437,133.6543,226.4524,0,U,61716,999,9738,.40893003E-3,.13434E-3,0
STARLINK-32457,2024-196L,2026-07-19T09:43:11.861760,15.34386615,.00011854,53.1588,208.7646,89.4873,270.6266,0,U,61717,999,9733,.22975835E-4,.4E-5,0
STARLINK-32591,2024-196M,2026-07-19T23:25:13.795104,15.34388855,.00013592,53.1595,191.6954,84.4257,275.6901,0,U,61718,999,9762,-.10396441E-4,-.727E-5,0
STARLINK-32344,2024-196N,2026-07-19T09:46:15.311424,15.34365313,.00009619,53.1585,208.7810,76.1450,283.9660,0,U,61719,999,9733,-.7084499E-4,-.2766E-4,0
STARLINK-32322,2024-196P,2026-07-20T07:03:00.498528,15.34393238,.00010244,53.1583,204.3619,78.1929,281.9189,0,U,61720,999,9747,.38889026E-4,.938E-5,0
STARLINK-32469,2024-196Q,2026-07-20T06:29:48.622560,15.34387843,.00012991,53.1604,204.9243,76.2690,283.8457,0,U,61721,999,9746,.24070743E-4,.437E-5,0
STARLINK-32438,2024-196R,2026-07-20T01:06:00.315936,15.34391116,.00012285,53.1591,205.6581,86.4941,273.6203,0,U,61722,999,9743,.3543071E-4,.821E-5,0
STARLINK-32540,2024-196S,2026-07-20T03:36:07.795008,15.34390463,.00014451,53.1587,168.8308,91.2882,268.8286,0,U,61723,999,9795,.10157608E-3,.3056E-4,0
STARLINK-32528,2024-196T,2026-07-20T06:50:53.496960,15.34387260,.00010788,53.1584,204.3109,81.2095,278.9029,0,U,61724,999,9627,-.530583E-5,-.555E-5,0
STARLINK-32573,2024-196U,2026-07-19T23:59:28.927968,15.34385346,.00012406,53.1589,206.0778,83.1077,277.0066,0,U,61725,999,9742,.20157321E-4,.305E-5,0
STARLINK-32478,2024-196V,2026-07-19T07:05:54.053664,15.34389394,.00011847,53.1596,209.5047,83.7507,276.3630,0,U,61726,999,9731,.19625071E-4,.287E-5,0
STARLINK-32511,2024-196W,2026-07-19T20:03:24.391872,15.34393208,.00008826,53.1592,206.4772,67.3217,292.7879,0,U,61727,999,9740,.31386757E-4,.684E-5,0
STARLINK-32475,2024-196X,2026-07-20T01:02:58.438752,15.34392135,.00011144,53.1587,205.6405,80.8193,279.2936,0,U,61728,999,9743,.45123082E-4,.1148E-4,0
STARLINK-32442,2024-196Y,2026-07-20T07:09:03.801024,15.34396825,.00011938,53.1598,204.3854,88.7594,271.3545,0,U,61729,999,9747,.62875394E-4,.1748E-4,0
STARLINK-32362,2024-202A,2026-07-20T06:26:18.604032,15.27581431,.00026619,43.0013,198.0250,279.8791,80.1760,0,U,61845,999,9632,-.54209003E-4,-.1754E-4,0
STARLINK-32472,2024-202B,2026-07-20T01:07:02.634528,15.27575324,.00011628,43.0028,199.8058,274.0543,86.0176,0,U,61846,999,9569,.14859334E-4,.147E-5,0
STARLINK-32352,2024-202C,2026-07-20T01:36:26.377344,15.27585146,.00014924,43.0014,199.0934,283.6128,76.4557,0,U,61847,999,9571,.10105756E-4,.16E-6,0
STARLINK-32427,2024-202D,2026-07-20T00:24:29.249280,15.27578238,.00010741,43.0006,199.5781,269.1880,90.8848,0,U,61848,999,9569,-.713138E-6,-.282E-5,0
STARLINK-32346,2024-202E,2026-07-20T00:30:02.469024,15.27575448,.00007588,43.0004,199.6061,259.4071,100.6696,0,U,61849,999,9569,-.1398852E-5,-.3E-5,0
STARLINK-32330,2024-202F,2026-07-20T01:03:06.352128,15.27575903,.00013009,43.0006,210.1659,269.4781,90.5921,0,U,61850,999,9558,-.987172E-6,-.289E-5,0
STARLINK-32379,2024-202G,2026-07-20T06:13:21.223488,15.27578572,.00017226,43.0019,197.9564,283.2411,76.8249,0,U,61851,999,9573,.22924362E-4,.369E-5,0
STARLINK-32433,2024-202H,2026-07-20T07:25:16.106016,15.27581986,.00014621,42.9994,208.7157,278.4124,81.6562,0,U,61852,999,9562,.49903311E-4,.1111E-4,0
STARLINK-32394,2024-202J,2026-07-20T07:28:58.692288,15.27575686,.00012529,43.0005,208.7361,274.0591,86.0117,0,U,61853,999,9561,.17483421E-4,.219E-5,0
STARLINK-32486,2024-202K,2026-07-20T01:17:54.083616,15.27583723,.00005432,42.9986,210.2426,282.1593,77.9198,0,U,61854,999,9558,.28852988E-4,.532E-5,0
STARLINK-32391,2024-202L,2026-07-20T01:23:27.310272,15.27574073,.00010997,42.9997,210.2699,275.9302,84.1424,0,U,61855,999,9557,-.2075815E-5,-.319E-5,0
STARLINK-32483,2024-202M,2026-07-20T07:45:39.339936,15.27561888,.00009163,42.9995,208.8213,279.0952,80.9796,0,U,61856,999,9562,-.55533126E-4,-.1789E-4,0
STARLINK-32451,2024-202N,2026-07-19T17:49:19.495200,15.27575804,.00012001,43.0019,212.2045,272.6481,87.4233,0,U,61857,999,9553,-.4667434E-5,-.39E-5,0
